{
    "links": {
        "self": "http://www.neowsapp.com/rest/v1/neo/3752097?api_key=iIulBulltgU6a56xZRHN4H3l9WmuAYTsLGpBGhQ2"
    },
    "id": "3752097",
    "neo_reference_id": "3752097",
    "name": "(2016 HE)",
    "designation": "2016 HE",
    "nasa_jpl_url": "http://ssd.jpl.nasa.gov/sbdb.cgi?sstr=3752097",
    "absolute_magnitude_h": 22.0,
    "estimated_diameter": {
        "kilometers": {
            "estimated_diameter_min": 0.1058168859,
            "estimated_diameter_max": 0.2366137501
        },
        "meters": {
            "estimated_diameter_min": 105.8168859331,
            "estimated_diameter_max": 236.6137501138
        },
        "miles": {
            "estimated_diameter_min": 0.0657515442,
            "estimated_diameter_max": 0.1470249225
        },
        "feet": {
            "estimated_diameter_min": 347.1682720448,
            "estimated_diameter_max": 776.2918559233
        }
    },
    "is_potentially_hazardous_asteroid": false,
    "close_approach_data": [
        {
            "close_approach_date": "2013-06-10",
            "close_approach_date_full": "2013-Jun-10 18:55",
            "epoch_date_close_approach": 1370890500000,
            "relative_velocity": {
                "kilometers_per_second": "6.8427202419",
                "kilometers_per_hour": "24633.7928706996",
                "miles_per_hour": "15306.4809090188"
            },
            "miss_distance": {
                "astronomical": "0.469054699",
                "lunar": "182.462277911",
                "kilometers": "70169583.88389113",
                "miles": "43601357.603632394"
            },
            "orbiting_body": "Earth"
        },
        {
            "close_approach_date": "2016-05-20",
            "close_approach_date_full": "2016-May-20 02:25",
            "epoch_date_close_approach": 1463711100000,
            "relative_velocity": {
                "kilometers_per_second": "6.7488827722",
                "kilometers_per_hour": "24295.9779798612",
                "miles_per_hour": "15096.5758730977"
            },
            "miss_distance": {
                "astronomical": "0.2957599611",
                "lunar": "115.0506248679",
                "kilometers": "44245060.211842857",
                "miles": "27492605.5665791466"
            },
            "orbiting_body": "Earth"
        }
    ],
    "orbital_data": {
        "orbit_id": "14",
        "orbit_determination_date": "2017-04-06 08:26:25",
        "first_observation_date": "2016-04-16",
        "last_observation_date": "2016-06-06",
        "data_arc_in_days": 51,
        "observations_used": 43,
        "orbit_uncertainty": "6",
        "minimum_orbit_intersection": ".292043",
        "jupiter_tisserand_invariant": "3.606",
        "epoch_osculation": "2459000.5",
        "eccentricity": ".390009086933939",
        "semi_major_axis": "2.113255806836228",
        "inclination": "12.89234293023064",
        "ascending_node_longitude": "43.16602422513468",
        "orbital_period": "1122.087006537035",
        "perihelion_distance": "1.289066839154186",
        "perihelion_argument": "206.9518925289075",
        "aphelion_distance": "2.937444774518269",
        "perihelion_time": "2458666.587989759235",
        "mean_anomaly": "107.1292359561851",
        "mean_motion": ".3208307358544552",
        "equinox": "J2000",
        "orbit_class": {
            "orbit_class_type": "AMO",
            "orbit_class_description": "Near-Earth asteroid orbits similar to that of 1221 Amor",
            "orbit_class_range": "1.017 AU < q (perihelion) < 1.3 AU"
        }
    },
    "is_sentry_object": false
}